{"type": "FeatureCollection", "features": [{"type": "Feature", "properties": {"norad_id": 36828, "name": "BEIDOU-2 IGSO-1 (C06)", "group": "beidou", "lat": -28.446676474140236, "lon": 141.60096004053995, "alt_km": 35855.52168700549, "timestamp": "2025-12-18T19:29:52.809367+00:00", "meta": {"OBJECT_NAME": "BEIDOU-2 IGSO-1 (C06)", "OBJECT_ID": "2010-036A", "EPOCH": "2025-12-14T21:38:21.623424", "MEAN_MOTION": 1.00275796, "ECCENTRICITY": 0.00512569, "INCLINATION": 54.2866, "RA_OF_ASC_NODE": 164.6279, "ARG_OF_PERICENTER": 215.8888, "MEAN_ANOMALY": 135.7931, "EPHEMERIS_TYPE": 0, "CLASSIFICATION_TYPE": "U", "NORAD_CAT_ID": 36828, "ELEMENT_SET_NO": 999, "REV_AT_EPOCH": 5624, "BSTAR": 0, "MEAN_MOTION_DOT": -2.4e-07, "MEAN_MOTION_DDOT": 0}, "tle": {"line1": "1 36828U 10036A   25348.90163916 -.00000024  00000+0  00000+0 0  9999", "line2": "2 36828  54.2866 164.6279 0051256 215.8888 135.7931  1.00275796 56247"}}, "geometry": {"type": "Point", "coordinates": [141.60096004053995, -28.446676474140236]}}, {"type": "Feature", "properties": {"norad_id": 37210, "name": "BEIDOU-2 G4 (C04)", "group": "beidou", "lat": 3.0000133805628524, "lon": -179.87577896197172, "alt_km": 35779.58880986168, "timestamp": "2025-12-18T19:29:52.809390+00:00", "meta": {"OBJECT_NAME": "BEIDOU-2 G4 (C04)", "OBJECT_ID": "2010-057A", "EPOCH": "2025-12-18T05:29:48.091776", "MEAN_MOTION": 1.00272036, "ECCENTRICITY": 0.00104836, "INCLINATION": 3.1978, "RA_OF_ASC_NODE": 69.919, "ARG_OF_PERICENTER": 192.3897, "MEAN_ANOMALY": 67.3167, "EPHEMERIS_TYPE": 0, "CLASSIFICATION_TYPE": "U", "NORAD_CAT_ID": 37210, "ELEMENT_SET_NO": 999, "REV_AT_EPOCH": 5547, "BSTAR": 0, "MEAN_MOTION_DOT": -8.9e-07, "MEAN_MOTION_DDOT": 0}, "tle": {"line1": "1 37210U 10057A   25352.22902884 -.00000089  00000+0  00000+0 0  9994", "line2": "2 37210   3.1978  69.9190 0010483 192.3897  67.3167  1.00272036 55474"}}, "geometry": {"type": "Point", "coordinates": [-179.87577896197172, 3.0000133805628524]}}, {"type": "Feature", "properties": {"norad_id": 37256, "name": "BEIDOU-2 IGSO-2 (C07)", "group": "beidou", "lat": -24.453112597048012, "lon": 118.29348588038938, "alt_km": 35582.82008230951, "timestamp": "2025-12-18T19:29:52.809405+00:00", "meta": {"OBJECT_NAME": "BEIDOU-2 IGSO-2 (C07)", "OBJECT_ID": "2010-068A", "EPOCH": "2025-12-17T17:15:44.928000", "MEAN_MOTION": 1.00285242, "ECCENTRICITY": 0.00482968, "INCLINATION": 47.8766, "RA_OF_ASC_NODE": 274.0874, "ARG_OF_PERICENTER": 216.3076, "MEAN_ANOMALY": 322.9541, "EPHEMERIS_TYPE": 0, "CLASSIFICATION_TYPE": "U", "NORAD_CAT_ID": 37256, "ELEMENT_SET_NO": 999, "REV_AT_EPOCH": 5497, "BSTAR": 0, "MEAN_MOTION_DOT": -2.07e-06, "MEAN_MOTION_DDOT": 0}, "tle": {"line1": "1 37256U 10068A   25351.71927000 -.00000207  00000+0  00000+0 0  9998", "line2": "2 37256  47.8766 274.0874 0048296 216.3076 322.9541  1.00285242 54974"}}, "geometry": {"type": "Point", "coordinates": [118.29348588038938, -24.453112597048012]}}, {"type": "Feature", "properties": {"norad_id": 37384, "name": "BEIDOU-2 IGSO-3 (C08)", "group": "beidou", "lat": 61.78971497551654, "lon": 121.73757999581214, "alt_km": 35813.61149022414, "timestamp": "2025-12-18T19:29:52.809418+00:00", "meta": {"OBJECT_NAME": "BEIDOU-2 IGSO-3 (C08)", "OBJECT_ID": "2011-013A", "EPOCH": "2025-12-17T16:16:10.103808", "MEAN_MOTION": 1.00269735, "ECCENTRICITY": 0.00353562, "INCLINATION": 62.15, "RA_OF_ASC_NODE": 41.8689, "ARG_OF_PERICENTER": 187.938, "MEAN_ANOMALY": 208.2285, "EPHEMERIS_TYPE": 0, "CLASSIFICATION_TYPE": "U", "NORAD_CAT_ID": 37384, "ELEMENT_SET_NO": 999, "REV_AT_EPOCH": 5384, "BSTAR": 0, "MEAN_MOTION_DOT": -1.79e-06, "MEAN_MOTION_DDOT": 0}, "tle": {"line1": "1 37384U 11013A   25351.67789472 -.00000179  00000+0  00000+0 0  9993", "line2": "2 37384  62.1500  41.8689 0035356 187.9380 208.2285  1.00269735 53845"}}, "geometry": {"type": "Point", "coordinates": [121.73757999581214, 61.78971497551654]}}, {"type": "Feature", "properties": {"norad_id": 37763, "name": "BEIDOU-2 IGSO-4 (C09)", "group": "beidou", "lat": -39.192832694898634, "lon": 131.747305991497, "alt_km": 35657.413501688694, "timestamp": "2025-12-18T19:29:52.809430+00:00", "meta": {"OBJECT_NAME": "BEIDOU-2 IGSO-4 (C09)", "OBJECT_ID": "2011-038A", "EPOCH": "2025-12-17T23:29:21.564384", "MEAN_MOTION": 1.00281312, "ECCENTRICITY": 0.01493143, "INCLINATION": 54.5836, "RA_OF_ASC_NODE": 167.2999, "ARG_OF_PERICENTER": 230.2426, "MEAN_ANOMALY": 136.1954, "EPHEMERIS_TYPE": 0, "CLASSIFICATION_TYPE": "U", "NORAD_CAT_ID": 37763, "ELEMENT_SET_NO": 999, "REV_AT_EPOCH": 5283, "BSTAR": 0, "MEAN_MOTION_DOT": 6.5e-07, "MEAN_MOTION_DDOT": 0}, "tle": {"line1": "1 37763U 11038A   25351.97872181  .00000065  00000+0  00000+0 0  9997", "line2": "2 37763  54.5836 167.2999 0149314 230.2426 136.1954  1.00281312 52838"}}, "geometry": {"type": "Point", "coordinates": [131.747305991497, -39.192832694898634]}}, {"type": "Feature", "properties": {"norad_id": 37948, "name": "BEIDOU-2 IGSO-5 (C10)", "group": "beidou", "lat": -14.153842234874464, "lon": 106.86067990694274, "alt_km": 35356.6464260816, "timestamp": "2025-12-18T19:29:52.809442+00:00", "meta": {"OBJECT_NAME": "BEIDOU-2 IGSO-5 (C10)", "OBJECT_ID": "2011-073A", "EPOCH": "2025-12-17T16:24:35.912736", "MEAN_MOTION": 1.00290385, "ECCENTRICITY": 0.01100136, "INCLINATION": 48.0109, "RA_OF_ASC_NODE": 273.7976, "ARG_OF_PERICENTER": 222.3587, "MEAN_ANOMALY": 289.8191, "EPHEMERIS_TYPE": 0, "CLASSIFICATION_TYPE": "U", "NORAD_CAT_ID": 37948, "ELEMENT_SET_NO": 999, "REV_AT_EPOCH": 5131, "BSTAR": 0, "MEAN_MOTION_DOT": -1.81e-06, "MEAN_MOTION_DDOT": 0}, "tle": {"line1": "1 37948U 11073A   25351.68374899 -.00000181  00000+0  00000+0 0  9992", "line2": "2 37948  48.0109 273.7976 0110013 222.3587 289.8191  1.00290385 51317"}}, "geometry": {"type": "Point", "coordinates": [106.86067990694274, -14.153842234874464]}}, {"type": "Feature", "properties": {"norad_id": 38091, "name": "BEIDOU-2 G5 (C05)", "group": "beidou", "lat": 0.4789869846113823, "lon": 79.01038753673994, "alt_km": 35827.37717376713, "timestamp": "2025-12-18T19:29:52.809454+00:00", "meta": {"OBJECT_NAME": "BEIDOU-2 G5 (C05)", "OBJECT_ID": "2012-008A", "EPOCH": "2025-12-18T01:35:25.082592", "MEAN_MOTION": 1.00268084, "ECCENTRICITY": 0.00129788, "INCLINATION": 3.1222, "RA_OF_ASC_NODE": 70.6932, "ARG_OF_PERICENTER": 231.0982, "MEAN_ANOMALY": 227.7978, "EPHEMERIS_TYPE": 0, "CLASSIFICATION_TYPE": "U", "NORAD_CAT_ID": 38091, "ELEMENT_SET_NO": 999, "REV_AT_EPOCH": 5055, "BSTAR": 0, "MEAN_MOTION_DOT": 7.9e-07, "MEAN_MOTION_DDOT": 0}, "tle": {"line1": "1 38091U 12008A   25352.06626253  .00000079  00000+0  00000+0 0  9993", "line2": "2 38091   3.1222  70.6932 0012978 231.0982 227.7978  1.00268084 50558"}}, "geometry": {"type": "Point", "coordinates": [79.01038753673994, 0.4789869846113823]}}, {"type": "Feature", "properties": {"norad_id": 38250, "name": "BEIDOU-2 M3 (C11)", "group": "beidou", "lat": 22.83228181156315, "lon": -32.51981850643582, "alt_km": 21551.886398727696, "timestamp": "2025-12-18T19:29:52.809466+00:00", "meta": {"OBJECT_NAME": "BEIDOU-2 M3 (C11)", "OBJECT_ID": "2012-018A", "EPOCH": "2025-12-17T03:50:10.506912", "MEAN_MOTION": 1.86229968, "ECCENTRICITY": 0.00242614, "INCLINATION": 55.9161, "RA_OF_ASC_NODE": 311.0085, "ARG_OF_PERICENTER": 274.7282, "MEAN_ANOMALY": 84.9799, "EPHEMERIS_TYPE": 0, "CLASSIFICATION_TYPE": "U", "NORAD_CAT_ID": 38250, "ELEMENT_SET_NO": 999, "REV_AT_EPOCH": 9255, "BSTAR": 0, "MEAN_MOTION_DOT": -9.2e-07, "MEAN_MOTION_DDOT": 0}, "tle": {"line1": "1 38250U 12018A   25351.15984383 -.00000092  00000+0  00000+0 0  9997", "line2": "2 38250  55.9161 311.0085 0024261 274.7282  84.9799  1.86229968 92550"}}, "geometry": {"type": "Point", "coordinates": [-32.51981850643582, 22.83228181156315]}}, {"type": "Feature", "properties": {"norad_id": 38251, "name": "BEIDOU-2 M4 (C12)", "group": "beidou", "lat": 52.45585634323861, "lon": 12.238337402885467, "alt_km": 21561.20423019206, "timestamp": "2025-12-18T19:29:52.809478+00:00", "meta": {"OBJECT_NAME": "BEIDOU-2 M4 (C12)", "OBJECT_ID": "2012-018B", "EPOCH": "2025-12-18T03:58:46.977600", "MEAN_MOTION": 1.86229645, "ECCENTRICITY": 0.00154499, "INCLINATION": 55.8165, "RA_OF_ASC_NODE": 310.203, "ARG_OF_PERICENTER": 278.2427, "MEAN_ANOMALY": 81.5679, "EPHEMERIS_TYPE": 0, "CLASSIFICATION_TYPE": "U", "NORAD_CAT_ID": 38251, "ELEMENT_SET_NO": 999, "REV_AT_EPOCH": 9257, "BSTAR": 0, "MEAN_MOTION_DOT": -8.6e-07, "MEAN_MOTION_DDOT": 0}, "tle": {"line1": "1 38251U 12018B   25352.16582150 -.00000086  00000+0  00000+0 0  9999", "line2": "2 38251  55.8165 310.2030 0015449 278.2427  81.5679  1.86229645 92577"}}, "geometry": {"type": "Point", "coordinates": [12.238337402885467, 52.45585634323861]}}, {"type": "Feature", "properties": {"norad_id": 38775, "name": "BEIDOU-2 M6 (C14)", "group": "beidou", "lat": -56.30557491263841, "lon": -26.15734664057579, "alt_km": 21526.524226651873, "timestamp": "2025-12-18T19:29:52.809490+00:00", "meta": {"OBJECT_NAME": "BEIDOU-2 M6 (C14)", "OBJECT_ID": "2012-050B", "EPOCH": "2025-12-16T19:16:00.374304", "MEAN_MOTION": 1.86230897, "ECCENTRICITY": 0.00113573, "INCLINATION": 56.3818, "RA_OF_ASC_NODE": 68.9326, "ARG_OF_PERICENTER": 343.3915, "MEAN_ANOMALY": 16.5942, "EPHEMERIS_TYPE": 0, "CLASSIFICATION_TYPE": "U", "NORAD_CAT_ID": 38775, "ELEMENT_SET_NO": 999, "REV_AT_EPOCH": 8991, "BSTAR": 0, "MEAN_MOTION_DOT": -7.7e-07, "MEAN_MOTION_DDOT": 0}, "tle": {"line1": "1 38775U 12050B   25350.80278211 -.00000077  00000+0  00000+0 0  9995", "line2": "2 38775  56.3818  68.9326 0011357 343.3915  16.5942  1.86230897 89910"}}, "geometry": {"type": "Point", "coordinates": [-26.15734664057579, -56.30557491263841]}}]}